STARLINK-30494          
1 57970U 23151G   26068.36049035 -.00001272  00000+0 -35691-4 0  9993
2 57970  43.0027 192.4566 0001155 241.5536 118.5200 15.28417441137406
STARLINK-31220          
1 59039U 24038S   26068.91903887  .00004731  00000+0  18130-3 0  9990
2 59039  42.9980  25.6840 0000217 175.7406 184.3447 15.27583421114796
